QIANFAN-17              
1 60395U 24140S   26199.77583125  .00000091  00000+0  12214-3 0  9991
2 60395  88.9742 276.8359 0012706 299.0499  60.9379 13.51016818 97577
QIANFAN-18              
1 60396U 24140T   26199.82929876  .00000102  00000+0  13969-3 0  9996
2 60396  88.9736 276.3495 0011906 278.3240  81.6561 13.51016319 96974
QIANFAN-19              
1 61552U 24185A   26199.83525737  .00000211  00000+0  10299-3 0  9993
2 61552  88.9812  52.9516 0005966 343.5677  16.5315 14.14495713100490
QIANFAN-20              
1 61553U 24185B   26199.78812156  .00000189  00000+0  10093-3 0  9998
2 61553  88.9807  53.4971 0006547  29.7037 330.4517 14.09037369100197
QIANFAN-21              
1 61554U 24185C   26199.77601992  .00000264  00000+0  11124-3 0  9992
2 61554  88.9728  51.4442 0011524  24.7610 335.4132 14.22883332100972
QIANFAN-22              
1 61555U 24185D   26199.83353100  .00000087  00000+0  63887-4 0  9992
2 61555  88.9792  55.3537 0008304  57.6327 302.5647 13.86408242 99159
QIANFAN-23              
1 61556U 24185E   26199.85442242  .00000200  00000+0  93114-4 0  9994
2 61556  88.9805  52.6567 0006893 351.8673   8.2402 14.16519788100628
QIANFAN-24              
1 61557U 24185F   26199.87492913  .00000285  00000+0  11770-3 0  9997
2 61557  88.9786  51.7047 0007756 318.1809  41.8790 14.24100781101066
QIANFAN-25              
1 61558U 24185G   26199.78084023  .00000164  00000+0  91357-4 0  9993
2 61558  88.9801  53.5157 0012477  24.4160 335.7611 14.06096635100147
QIANFAN-26              
1 61559U 24185H   26199.82613421  .00000131  00000+0  11772-3 0  9995
2 61559  88.9799  56.2132 0007861  75.6831 284.5207 13.77924946 98703
QIANFAN-27              
1 61560U 24185J   26199.82716729  .00000145  00000+0  52995-4 0  9990
2 61560  88.9798  51.3804 0005276 305.9396  54.1308 14.27557840101270
QIANFAN-28              
1 61561U 24185K   26199.82894642  .00000309  00000+0  11765-3 0  9993
2 61561  88.9815  51.3935 0005100 303.4981  56.5726 14.28421095101302
QIANFAN-29              
1 61562U 24185L   26199.84715779  .00000077  00000+0  10022-3 0  9996
2 61562  88.9772  58.7682 0011165 131.8730 228.3376 13.51079287 97242
QIANFAN-30              
1 61563U 24185M   26199.83905674  .00000001  00000+0 -17115-4 0  9990
2 61563  88.9791  58.3778 0009121 118.1561 242.0512 13.50061347 97494
QIANFAN-31              
1 61564U 24185N   26199.85245468  .00000066  00000+0  74405-4 0  9996
2 61564  88.9776  57.8320 0008884 106.4365 253.7767 13.58047460 97761
QIANFAN-32              
1 61565U 24185P   26199.83598286  .00000087  00000+0  11676-3 0  9997
2 61565  88.9833  58.5773 0010465 145.9546 214.2279 13.50793362 97483
