{"fetched_at":"2026-07-19T07:04:52.450Z","source":"https://celestrak.org/NORAD/elements/gp.php?GROUP=qianfan&FORMAT=JSON","constellation":"qianfan","records":[{"OBJECT_NAME":"QIANFAN-17","OBJECT_ID":"2024-140S","EPOCH":"2026-07-18T18:37:11.820000","CLASSIFICATION_TYPE":"U","MEAN_MOTION":13.51016818,"ECCENTRICITY":0.0012706,"INCLINATION":88.9742,"RA_OF_ASC_NODE":276.8359,"ARG_OF_PERICENTER":299.0499,"MEAN_ANOMALY":60.9379,"EPHEMERIS_TYPE":0,"NORAD_CAT_ID":60395,"ELEMENT_SET_NO":999,"REV_AT_EPOCH":9757,"BSTAR":0.00012214,"MEAN_MOTION_DOT":9.1e-7,"MEAN_MOTION_DDOT":0},{"OBJECT_NAME":"QIANFAN-18","OBJECT_ID":"2024-140T","EPOCH":"2026-07-18T19:54:11.412864","CLASSIFICATION_TYPE":"U","MEAN_MOTION":13.51016319,"ECCENTRICITY":0.0011906,"INCLINATION":88.9736,"RA_OF_ASC_NODE":276.3495,"ARG_OF_PERICENTER":278.324,"MEAN_ANOMALY":81.6561,"EPHEMERIS_TYPE":0,"NORAD_CAT_ID":60396,"ELEMENT_SET_NO":999,"REV_AT_EPOCH":9697,"BSTAR":0.00013969,"MEAN_MOTION_DOT":0.00000102,"MEAN_MOTION_DDOT":0},{"OBJECT_NAME":"QIANFAN-19","OBJECT_ID":"2024-185A","EPOCH":"2026-07-18T20:02:46.236768","CLASSIFICATION_TYPE":"U","MEAN_MOTION":14.14495713,"ECCENTRICITY":0.0005966,"INCLINATION":88.9812,"RA_OF_ASC_NODE":52.9516,"ARG_OF_PERICENTER":343.5677,"MEAN_ANOMALY":16.5315,"EPHEMERIS_TYPE":0,"NORAD_CAT_ID":61552,"ELEMENT_SET_NO":999,"REV_AT_EPOCH":10049,"BSTAR":0.00010299,"MEAN_MOTION_DOT":0.00000211,"MEAN_MOTION_DDOT":0},{"OBJECT_NAME":"QIANFAN-20","OBJECT_ID":"2024-185B","EPOCH":"2026-07-18T18:54:53.702784","CLASSIFICATION_TYPE":"U","MEAN_MOTION":14.09037369,"ECCENTRICITY":0.0006547,"INCLINATION":88.9807,"RA_OF_ASC_NODE":53.4971,"ARG_OF_PERICENTER":29.7037,"MEAN_ANOMALY":330.4517,"EPHEMERIS_TYPE":0,"NORAD_CAT_ID":61553,"ELEMENT_SET_NO":999,"REV_AT_EPOCH":10019,"BSTAR":0.00010093,"MEAN_MOTION_DOT":0.00000189,"MEAN_MOTION_DDOT":0},{"OBJECT_NAME":"QIANFAN-21","OBJECT_ID":"2024-185C","EPOCH":"2026-07-18T18:37:28.121088","CLASSIFICATION_TYPE":"U","MEAN_MOTION":14.22883332,"ECCENTRICITY":0.0011524,"INCLINATION":88.9728,"RA_OF_ASC_NODE":51.4442,"ARG_OF_PERICENTER":24.761,"MEAN_ANOMALY":335.4132,"EPHEMERIS_TYPE":0,"NORAD_CAT_ID":61554,"ELEMENT_SET_NO":999,"REV_AT_EPOCH":10097,"BSTAR":0.00011124,"MEAN_MOTION_DOT":0.00000264,"MEAN_MOTION_DDOT":0},{"OBJECT_NAME":"QIANFAN-22","OBJECT_ID":"2024-185D","EPOCH":"2026-07-18T20:00:17.078400","CLASSIFICATION_TYPE":"U","MEAN_MOTION":13.86408242,"ECCENTRICITY":0.0008304,"INCLINATION":88.9792,"RA_OF_ASC_NODE":55.3537,"ARG_OF_PERICENTER":57.6327,"MEAN_ANOMALY":302.5647,"EPHEMERIS_TYPE":0,"NORAD_CAT_ID":61555,"ELEMENT_SET_NO":999,"REV_AT_EPOCH":9915,"BSTAR":0.000063887,"MEAN_MOTION_DOT":8.7e-7,"MEAN_MOTION_DDOT":0},{"OBJECT_NAME":"QIANFAN-23","OBJECT_ID":"2024-185E","EPOCH":"2026-07-18T20:30:22.097088","CLASSIFICATION_TYPE":"U","MEAN_MOTION":14.16519788,"ECCENTRICITY":0.0006893,"INCLINATION":88.9805,"RA_OF_ASC_NODE":52.6567,"ARG_OF_PERICENTER":351.8673,"MEAN_ANOMALY":8.2402,"EPHEMERIS_TYPE":0,"NORAD_CAT_ID":61556,"ELEMENT_SET_NO":999,"REV_AT_EPOCH":10062,"BSTAR":0.000093114,"MEAN_MOTION_DOT":0.000002,"MEAN_MOTION_DDOT":0},{"OBJECT_NAME":"QIANFAN-24","OBJECT_ID":"2024-185F","EPOCH":"2026-07-18T20:59:53.876832","CLASSIFICATION_TYPE":"U","MEAN_MOTION":14.24100781,"ECCENTRICITY":0.0007756,"INCLINATION":88.9786,"RA_OF_ASC_NODE":51.7047,"ARG_OF_PERICENTER":318.1809,"MEAN_ANOMALY":41.879,"EPHEMERIS_TYPE":0,"NORAD_CAT_ID":61557,"ELEMENT_SET_NO":999,"REV_AT_EPOCH":10106,"BSTAR":0.0001177,"MEAN_MOTION_DOT":0.00000285,"MEAN_MOTION_DDOT":0},{"OBJECT_NAME":"QIANFAN-25","OBJECT_ID":"2024-185G","EPOCH":"2026-07-18T18:44:24.595872","CLASSIFICATION_TYPE":"U","MEAN_MOTION":14.06096635,"ECCENTRICITY":0.0012477,"INCLINATION":88.9801,"RA_OF_ASC_NODE":53.5157,"ARG_OF_PERICENTER":24.416,"MEAN_ANOMALY":335.7611,"EPHEMERIS_TYPE":0,"NORAD_CAT_ID":61558,"ELEMENT_SET_NO":999,"REV_AT_EPOCH":10014,"BSTAR":0.000091357,"MEAN_MOTION_DOT":0.00000164,"MEAN_MOTION_DDOT":0},{"OBJECT_NAME":"QIANFAN-26","OBJECT_ID":"2024-185H","EPOCH":"2026-07-18T19:49:37.995744","CLASSIFICATION_TYPE":"U","MEAN_MOTION":13.77924946,"ECCENTRICITY":0.0007861,"INCLINATION":88.9799,"RA_OF_ASC_NODE":56.2132,"ARG_OF_PERICENTER":75.6831,"MEAN_ANOMALY":284.5207,"EPHEMERIS_TYPE":0,"NORAD_CAT_ID":61559,"ELEMENT_SET_NO":999,"REV_AT_EPOCH":9870,"BSTAR":0.00011772,"MEAN_MOTION_DOT":0.00000131,"MEAN_MOTION_DDOT":0},{"OBJECT_NAME":"QIANFAN-27","OBJECT_ID":"2024-185J","EPOCH":"2026-07-18T19:51:07.253856","CLASSIFICATION_TYPE":"U","MEAN_MOTION":14.2755784,"ECCENTRICITY":0.0005276,"INCLINATION":88.9798,"RA_OF_ASC_NODE":51.3804,"ARG_OF_PERICENTER":305.9396,"MEAN_ANOMALY":54.1308,"EPHEMERIS_TYPE":0,"NORAD_CAT_ID":61560,"ELEMENT_SET_NO":999,"REV_AT_EPOCH":10127,"BSTAR":0.000052995,"MEAN_MOTION_DOT":0.00000145,"MEAN_MOTION_DDOT":0},{"OBJECT_NAME":"QIANFAN-28","OBJECT_ID":"2024-185K","EPOCH":"2026-07-18T19:53:40.970688","CLASSIFICATION_TYPE":"U","MEAN_MOTION":14.28421095,"ECCENTRICITY":0.00051,"INCLINATION":88.9815,"RA_OF_ASC_NODE":51.3935,"ARG_OF_PERICENTER":303.4981,"MEAN_ANOMALY":56.5726,"EPHEMERIS_TYPE":0,"NORAD_CAT_ID":61561,"ELEMENT_SET_NO":999,"REV_AT_EPOCH":10130,"BSTAR":0.00011765,"MEAN_MOTION_DOT":0.00000309,"MEAN_MOTION_DDOT":0},{"OBJECT_NAME":"QIANFAN-29","OBJECT_ID":"2024-185L","EPOCH":"2026-07-18T20:19:54.433056","CLASSIFICATION_TYPE":"U","MEAN_MOTION":13.51079287,"ECCENTRICITY":0.0011165,"INCLINATION":88.9772,"RA_OF_ASC_NODE":58.7682,"ARG_OF_PERICENTER":131.873,"MEAN_ANOMALY":228.3376,"EPHEMERIS_TYPE":0,"NORAD_CAT_ID":61562,"ELEMENT_SET_NO":999,"REV_AT_EPOCH":9724,"BSTAR":0.00010022,"MEAN_MOTION_DOT":7.7e-7,"MEAN_MOTION_DDOT":0},{"OBJECT_NAME":"QIANFAN-30","OBJECT_ID":"2024-185M","EPOCH":"2026-07-18T20:08:14.502336","CLASSIFICATION_TYPE":"U","MEAN_MOTION":13.50061347,"ECCENTRICITY":0.0009121,"INCLINATION":88.9791,"RA_OF_ASC_NODE":58.3778,"ARG_OF_PERICENTER":118.1561,"MEAN_ANOMALY":242.0512,"EPHEMERIS_TYPE":0,"NORAD_CAT_ID":61563,"ELEMENT_SET_NO":999,"REV_AT_EPOCH":9749,"BSTAR":-0.000017115,"MEAN_MOTION_DOT":1e-8,"MEAN_MOTION_DDOT":0},{"OBJECT_NAME":"QIANFAN-31","OBJECT_ID":"2024-185N","EPOCH":"2026-07-18T20:27:32.084352","CLASSIFICATION_TYPE":"U","MEAN_MOTION":13.5804746,"ECCENTRICITY":0.0008884,"INCLINATION":88.9776,"RA_OF_ASC_NODE":57.832,"ARG_OF_PERICENTER":106.4365,"MEAN_ANOMALY":253.7767,"EPHEMERIS_TYPE":0,"NORAD_CAT_ID":61564,"ELEMENT_SET_NO":999,"REV_AT_EPOCH":9776,"BSTAR":0.000074405,"MEAN_MOTION_DOT":6.6e-7,"MEAN_MOTION_DDOT":0},{"OBJECT_NAME":"QIANFAN-32","OBJECT_ID":"2024-185P","EPOCH":"2026-07-18T20:03:48.919104","CLASSIFICATION_TYPE":"U","MEAN_MOTION":13.50793362,"ECCENTRICITY":0.0010465,"INCLINATION":88.9833,"RA_OF_ASC_NODE":58.5773,"ARG_OF_PERICENTER":145.9546,"MEAN_ANOMALY":214.2279,"EPHEMERIS_TYPE":0,"NORAD_CAT_ID":61565,"ELEMENT_SET_NO":999,"REV_AT_EPOCH":9748,"BSTAR":0.00011676,"MEAN_MOTION_DOT":8.7e-7,"MEAN_MOTION_DDOT":0}]}
